[
  {
    "licenseeNumber": 15000,
    "businessName": "STAR ONE ENTERPRISES INC.",
    "locationName": "",
    "storeName": "6270 MCDONOUGH DR",
    "address": "STE G6",
    "city": "NORCROSS",
    "zipcode": 30093,
    "state": "GA"
  },
  {
    "licenseeNumber": 15001,
    "businessName": "N VIR AMUSEMENT, INC",
    "locationName": "",
    "storeName": "5300 MEMORIAL DR",
    "address": "STE 132",
    "city": "STONE MOUNTAIN",
    "zipcode": 30083,
    "state": "GA"
  },
  {
    "licenseeNumber": 15003,
    "businessName": "UNIVERSAL GAMES LLC",
    "locationName": "",
    "storeName": "144 SHELTON DRIVE",
    "address": "",
    "city": "MCDONOUGH",
    "zipcode": 30252,
    "state": "GA"
  },
  {
    "licenseeNumber": 15004,
    "businessName": "SUNRISE AMUSEMENT LLC",
    "locationName": "",
    "storeName": "1806 ROYAL TROON CT",
    "address": "",
    "city": "DULUTH",
    "zipcode": 30097,
    "state": "GA"
  },
  {
    "licenseeNumber": 15005,
    "businessName": "INTERSTATE AMUSEMENTS LLC",
    "locationName": "",
    "storeName": "2639B GA HWY 247 CONNECTOR",
    "address": "",
    "city": "BYRON",
    "zipcode": 31008,
    "state": "GA"
  },
  {
    "licenseeNumber": 15008,
    "businessName": "A AND S INVESTMENT ENTERPRISE INC",
    "locationName": "",
    "storeName": "2179 LAWRENCEVILLE HWY STE 104",
    "address": "",
    "city": "LAWRENCEVILLE",
    "zipcode": 30044,
    "state": "GA"
  },
  {
    "licenseeNumber": 15010,
    "businessName": "ARADHANA LLC",
    "locationName": "ARADHANA LLC",
    "storeName": "100 A PARK 42 DRIVE",
    "address": "",
    "city": "LOCUST GROVE",
    "zipcode": 30248,
    "state": "GA"
  },
  {
    "licenseeNumber": 15012,
    "businessName": "STAR COIN, INC.",
    "locationName": "",
    "storeName": "54 MARSHALL ROAD",
    "address": "",
    "city": "MILLEDGEVILLE",
    "zipcode": 31061,
    "state": "GA"
  },
  {
    "licenseeNumber": 15013,
    "businessName": "HYUN C YIM",
    "locationName": "",
    "storeName": "409 N CENTRAL AVE",
    "address": "",
    "city": "HAPEVILLE",
    "zipcode": 30354,
    "state": "GA"
  },
  {
    "licenseeNumber": 15014,
    "businessName": "HIGH LIFE GAMES LLC",
    "locationName": "",
    "storeName": "4420 SOUTH LEE ST",
    "address": "SUITE 204",
    "city": "BUFORD",
    "zipcode": 30518,
    "state": "GA"
  },
  {
    "licenseeNumber": 15015,
    "businessName": "PARRIS ENTERPRISES GROUP, INC.",
    "locationName": "",
    "storeName": "540 E CHURCH ST",
    "address": "",
    "city": "JASPER",
    "zipcode": 30143,
    "state": "GA"
  },
  {
    "licenseeNumber": 15016,
    "businessName": "SEVEN ELEVEN AMUSEMENTS INC",
    "locationName": "ALI GAMES INC",
    "storeName": "711 EAST BOLTON STREET",
    "address": "",
    "city": "SAVANNAH",
    "zipcode": 31401,
    "state": "GA"
  },
  {
    "licenseeNumber": 15017,
    "businessName": "TRIPLE T AMUSEMENT INC",
    "locationName": "",
    "storeName": "436 NORTH MAIN ST",
    "address": "",
    "city": "SWAINSBORO",
    "zipcode": 30401,
    "state": "GA"
  },
  {
    "licenseeNumber": 15019,
    "businessName": "GZONE, INC",
    "locationName": "GZONE, INC",
    "storeName": "5500 OAKBROOK PKWY STE 275",
    "address": "",
    "city": "NORCROSS",
    "zipcode": 30093,
    "state": "GA"
  },
  {
    "licenseeNumber": 15021,
    "businessName": "LUCKY BUCKS LLC",
    "locationName": "",
    "storeName": "5675 JIMMY CARTER BLVD",
    "address": "SUITE 725",
    "city": "NORCROSS",
    "zipcode": 30071,
    "state": "GA"
  },
  {
    "licenseeNumber": 15022,
    "businessName": "HARRY DAVID POOLE II - B",
    "locationName": "POOLE'S BILLIARDS & AMUSEMENTS",
    "storeName": "325 OLD DAMES FERRY RD",
    "address": "",
    "city": "JULIETTE",
    "zipcode": 31046,
    "state": "GA"
  },
  {
    "licenseeNumber": 15023,
    "businessName": "M. V. CORPORATE ENTERPRISES INC.",
    "locationName": "VISION AMUSEMENTS",
    "storeName": "307 SHANNON WAY",
    "address": "",
    "city": "LAWRENCEVILLE",
    "zipcode": 30044,
    "state": "GA"
  },
  {
    "licenseeNumber": 15024,
    "businessName": "TRIPLE AMUSEMENT LLC",
    "locationName": "",
    "storeName": "935 HWY 124 SUITE 205",
    "address": "",
    "city": "BRASELTON",
    "zipcode": 30517,
    "state": "GA"
  },
  {
    "licenseeNumber": 15026,
    "businessName": "PARADISE AMUSEMENT INC.",
    "locationName": "PARADISE AMUSEMENT INC.",
    "storeName": "109-D PARK 42 DRIVE",
    "address": "",
    "city": "LOCUST GROVE",
    "zipcode": 30248,
    "state": "GA"
  },
  {
    "licenseeNumber": 15027,
    "businessName": "DHRUV AND GEM LLC",
    "locationName": "",
    "storeName": "17003 ABERCORN ST.",
    "address": "",
    "city": "SAVANNAH",
    "zipcode": 31419,
    "state": "GA"
  },
  {
    "licenseeNumber": 15029,
    "businessName": "EAST WEST AMUSEMENT LLC",
    "locationName": "RELIABLE GAMES",
    "storeName": "5500 OAKBROOK PKWY STE 270",
    "address": "",
    "city": "NORCROSS",
    "zipcode": 30093,
    "state": "GA"
  },
  {
    "licenseeNumber": 15030,
    "businessName": "CAROLINA ENTERTAINMENT GROUP LLC",
    "locationName": "",
    "storeName": "100B GUNN RD STE 4",
    "address": "",
    "city": "CENTERVILLE",
    "zipcode": 31028,
    "state": "GA"
  },
  {
    "licenseeNumber": 15031,
    "businessName": "SUPREME GROUP LLC",
    "locationName": "",
    "storeName": "29 LENOX POINTE NE",
    "address": "SUITE B",
    "city": "ATLANTA",
    "zipcode": 30324,
    "state": "GA"
  },
  {
    "licenseeNumber": 15034,
    "businessName": "CENTRAL MUSIC COMPANY,INC",
    "locationName": "",
    "storeName": "305 E.PINE ST",
    "address": "",
    "city": "FITZGERALD",
    "zipcode": 31750,
    "state": "GA"
  },
  {
    "licenseeNumber": 15035,
    "businessName": "CARIS ROLAND & TRAVIS ROLAND PTNR",
    "locationName": "",
    "storeName": "248 COLONIAL WAY NE",
    "address": "",
    "city": "CALHOUN",
    "zipcode": 30701,
    "state": "GA"
  },
  {
    "licenseeNumber": 15039,
    "businessName": "METRO GAMES LLC",
    "locationName": "",
    "storeName": "4725 PEACHTREE CORNERS CIR STE 360",
    "address": "",
    "city": "PEACHTREE CORNERS",
    "zipcode": 30092,
    "state": "GA"
  },
  {
    "licenseeNumber": 15040,
    "businessName": "KASHMIR ENTERPRISES LLC",
    "locationName": "KASHMIR ENTERPRISES LLC",
    "storeName": "2993 SANDY PLAINS RD",
    "address": "SUITE 115",
    "city": "MARIETTA",
    "zipcode": 30066,
    "state": "GA"
  },
  {
    "licenseeNumber": 15041,
    "businessName": "CENTURY AMUSEMENT, INC.",
    "locationName": "CENTURY AMUSEMENT",
    "storeName": "3598 CLAIRMONT ROAD",
    "address": "",
    "city": "BROOKHAVEN",
    "zipcode": 30319,
    "state": "GA"
  },
  {
    "licenseeNumber": 15047,
    "businessName": "COIN-OP SOLUTIONS LLC",
    "locationName": "COIN-OP SOLUTIONS LLC",
    "storeName": "700 LAWRENCE ST NE",
    "address": "",
    "city": "MARIETTA",
    "zipcode": 30060,
    "state": "GA"
  },
  {
    "licenseeNumber": 15051,
    "businessName": "WISE AMUSEMENT LLC",
    "locationName": "WISE AMUSEMENT",
    "storeName": "5675 JIMMY CARTER BLVD SUITE 115",
    "address": "",
    "city": "NORCROSS",
    "zipcode": 30071,
    "state": "GA"
  },
  {
    "licenseeNumber": 15052,
    "businessName": "GNB AMUSEMENT INC",
    "locationName": "",
    "storeName": "4380 INTERSTATE DR",
    "address": "",
    "city": "MACON",
    "zipcode": 31210,
    "state": "GA"
  },
  {
    "licenseeNumber": 15053,
    "businessName": "HOUSTON AUTO AUCTION INC.",
    "locationName": "HOUSTON AUTO AUCTION INC.",
    "storeName": "4599 PIO NONO AVENUE",
    "address": "",
    "city": "MACON",
    "zipcode": 31206,
    "state": "GA"
  },
  {
    "licenseeNumber": 15055,
    "businessName": "FEELING LUCKY AMUSEMENT LLC",
    "locationName": "",
    "storeName": "7074 PEACHTREE INDUSTRIAL BLVD",
    "address": "SUITE 205",
    "city": "NORCROSS",
    "zipcode": 30071,
    "state": "GA"
  },
  {
    "licenseeNumber": 15056,
    "businessName": "DIAMOND AMUSEMENTS INC",
    "locationName": "DIAMOND AMUSEMENTS",
    "storeName": "2341 HIGHWAY 78",
    "address": "BOX 13",
    "city": "LOGANVILLE",
    "zipcode": 30052,
    "state": "GA"
  },
  {
    "licenseeNumber": 15057,
    "businessName": "COMPU-SPORTS INC.",
    "locationName": "",
    "storeName": "6071 OAKBROOK PKWY",
    "address": "",
    "city": "NORCROSS",
    "zipcode": 30093,
    "state": "GA"
  },
  {
    "licenseeNumber": 15060,
    "businessName": "ULTRA GROUP OF COMPANIES,INC.",
    "locationName": "",
    "storeName": "1425 OAKBROOK DRIVE",
    "address": "SUITE 400",
    "city": "NORCROSS",
    "zipcode": 30093,
    "state": "GA"
  },
  {
    "licenseeNumber": 15063,
    "businessName": "YUGALKUNJ INC",
    "locationName": "HKB GAMING",
    "storeName": "5500 OAKBROOK PKWY",
    "address": "SUITE 170",
    "city": "NORCROSS",
    "zipcode": 30093,
    "state": "GA"
  },
  {
    "licenseeNumber": 15064,
    "businessName": "CHUNJI INC",
    "locationName": "",
    "storeName": "10615 HIGHGATE MANOR CT",
    "address": "",
    "city": "DULUTH",
    "zipcode": 30097,
    "state": "GA"
  },
  {
    "licenseeNumber": 15065,
    "businessName": "GUGGLE AMUSEMENT, INC.",
    "locationName": "",
    "storeName": "125 TOWNPARK DR N.W., STE 300",
    "address": "",
    "city": "KENNESAW",
    "zipcode": 30144,
    "state": "GA"
  },
  {
    "licenseeNumber": 15066,
    "businessName": "SIMRAN 23 INC",
    "locationName": "BING AMUSEMENTS",
    "storeName": "3230 PEACHTREE CORNERS CIR SUITE J",
    "address": "",
    "city": "NORCROSS",
    "zipcode": 30092,
    "state": "GA"
  },
  {
    "licenseeNumber": 15069,
    "businessName": "BEST AMUSEMENT INC",
    "locationName": "",
    "storeName": "3529 CHURCH STREET, SUITE A",
    "address": "",
    "city": "CLARKSTON",
    "zipcode": 30021,
    "state": "GA"
  },
  {
    "licenseeNumber": 15070,
    "businessName": "SHOWTIME AMUSEMENT INC.",
    "locationName": "SHOWTIME AMUSEMENT",
    "storeName": "246 MILLSIDE COURT",
    "address": "",
    "city": "COMMERCE",
    "zipcode": 30529,
    "state": "GA"
  },
  {
    "licenseeNumber": 15071,
    "businessName": "SM LUCKY GAME LLC",
    "locationName": "",
    "storeName": "5022 BRIAR  ROSE CT",
    "address": "",
    "city": "SUWANEE",
    "zipcode": 30024,
    "state": "GA"
  },
  {
    "licenseeNumber": 15074,
    "businessName": "KIA AMUSEMENT GAMES LLC",
    "locationName": "",
    "storeName": "2506 NORWICH ST UNIT C",
    "address": "",
    "city": "BRUNSWICK",
    "zipcode": 31520,
    "state": "GA"
  },
  {
    "licenseeNumber": 15077,
    "businessName": "AMBAJI AMUSEMENT LLC",
    "locationName": "",
    "storeName": "1850 LAWRENCEVILLE HWY",
    "address": "SUITE 200",
    "city": "DECATUR",
    "zipcode": 30033,
    "state": "GA"
  },
  {
    "licenseeNumber": 15078,
    "businessName": "ROUSTABOUT LLC",
    "locationName": "",
    "storeName": "100 GALLERIA PKWY",
    "address": "SUITE 1000",
    "city": "ATLANTA",
    "zipcode": 30339,
    "state": "GA"
  },
  {
    "licenseeNumber": 15079,
    "businessName": "AMERICAN SPIRIT AMUSEMENT LLC",
    "locationName": "",
    "storeName": "2377 HUNTCREST WAY",
    "address": "",
    "city": "LAWRENCEVILLE",
    "zipcode": 30043,
    "state": "GA"
  },
  {
    "licenseeNumber": 15080,
    "businessName": "LUCKY BUCKS LLC",
    "locationName": "",
    "storeName": "5675 JIMMY CARTER BLVD",
    "address": "SUITE 725",
    "city": "NORCROSS",
    "zipcode": 30071,
    "state": "GA"
  },
  {
    "licenseeNumber": 15081,
    "businessName": "LUCKY COIN, INC.",
    "locationName": "",
    "storeName": "4958 HAMMERMILL RD",
    "address": "",
    "city": "TUCKER",
    "zipcode": 30084,
    "state": "GA"
  },
  {
    "licenseeNumber": 15084,
    "businessName": "NICHOLAS PARKER",
    "locationName": "FUN AND GAMES",
    "storeName": "1379 JACQUELINE DR",
    "address": "",
    "city": "COLUMBUS",
    "zipcode": 31907,
    "state": "GA"
  },
  {
    "licenseeNumber": 15090,
    "businessName": "DOUBLE DOWN GAMING 3 LLC",
    "locationName": "AMAZING AMUSEMENT",
    "storeName": "1640 POWERS FERRY RD",
    "address": "BLDG 2-125",
    "city": "MARIETTA",
    "zipcode": 30067,
    "state": "GA"
  },
  {
    "licenseeNumber": 15097,
    "businessName": "DARREN W ARMITAGE",
    "locationName": "PLAYTIME AMUSEMENT",
    "storeName": "3428 CHATTANOOGA RD",
    "address": "",
    "city": "TUNNEL HILL",
    "zipcode": 30755,
    "state": "GA"
  },
  {
    "licenseeNumber": 15098,
    "businessName": "TIGER AMUSEMENT LLC",
    "locationName": "",
    "storeName": "271 LAKE MIRROW RD STE B",
    "address": "",
    "city": "FOREST PARK",
    "zipcode": 30297,
    "state": "GA"
  },
  {
    "licenseeNumber": 15101,
    "businessName": "SPALDING AMUSEMENT COMPANY",
    "locationName": "ALLSTAR AMUSEMENT GAMES",
    "storeName": "205 ODELL RD, STE A",
    "address": "",
    "city": "GRIFFIN",
    "zipcode": 30224,
    "state": "GA"
  },
  {
    "licenseeNumber": 15104,
    "businessName": "J AND G AMUSEMENT INC",
    "locationName": "",
    "storeName": "1989 SIMPSON RD SE",
    "address": "",
    "city": "SMYRNA",
    "zipcode": 30080,
    "state": "GA"
  },
  {
    "licenseeNumber": 15105,
    "businessName": "EKONGKAAR INC",
    "locationName": "",
    "storeName": "1785 E PARK PLACE BLVD STE 209",
    "address": "",
    "city": "STONE MOUNTAIN",
    "zipcode": 30087,
    "state": "GA"
  },
  {
    "licenseeNumber": 15106,
    "businessName": "JESSI RAJ INC",
    "locationName": "INFINITY AMUSEMENT",
    "storeName": "6040 UNITY DR STE F",
    "address": "",
    "city": "NORCROSS",
    "zipcode": 30071,
    "state": "GA"
  },
  {
    "licenseeNumber": 15107,
    "businessName": "WORLD GAME 2010, INC.",
    "locationName": "",
    "storeName": "3690 MOYE TRAIL",
    "address": "",
    "city": "DULUTH",
    "zipcode": 30097,
    "state": "GA"
  },
  {
    "licenseeNumber": 15108,
    "businessName": "DOUBLE DOWN GAMING LLC",
    "locationName": "",
    "storeName": "1640 POWERS FERRY RD",
    "address": "BLDG 2-125",
    "city": "MARIETTA",
    "zipcode": 30067,
    "state": "GA"
  },
  {
    "licenseeNumber": 15111,
    "businessName": "PETROS SPIVEY, INC.",
    "locationName": "",
    "storeName": "4845 MEMORIAL DR SUITE A",
    "address": "",
    "city": "STONE MOUNTAIN",
    "zipcode": 30083,
    "state": "GA"
  },
  {
    "licenseeNumber": 15112,
    "businessName": "TOP GAMES LLC",
    "locationName": "",
    "storeName": "411 PAYTON CT",
    "address": "",
    "city": "STOCKBRIDGE",
    "zipcode": 30281,
    "state": "GA"
  },
  {
    "licenseeNumber": 15114,
    "businessName": "ALPHA PETROLEUM, INC",
    "locationName": "",
    "storeName": "1081 RAILROAD ST NW",
    "address": "",
    "city": "CONYERS",
    "zipcode": 30012,
    "state": "GA"
  },
  {
    "licenseeNumber": 15118,
    "businessName": "PREMIUM GAMES LLC",
    "locationName": "",
    "storeName": "6140 BELLEWOOD ASH LANE",
    "address": "",
    "city": "TUCKER",
    "zipcode": 30084,
    "state": "GA"
  },
  {
    "licenseeNumber": 15122,
    "businessName": "GREATER GEORGIA AMUSEMENTS LLC",
    "locationName": "",
    "storeName": "2055 NORTH DRUID HILLS RD NE",
    "address": "",
    "city": "ATLANTA",
    "zipcode": 30329,
    "state": "GA"
  },
  {
    "licenseeNumber": 15123,
    "businessName": "LUCKY BUCKS LLC",
    "locationName": "",
    "storeName": "5675 JIMMY CARTER BLVD",
    "address": "SUITE 725",
    "city": "NORCROSS",
    "zipcode": 30071,
    "state": "GA"
  },
  {
    "licenseeNumber": 15125,
    "businessName": "BRIGHT STAR AMUSEMENT LLC",
    "locationName": "BRIGHT STAR AMUSEMENT LLC",
    "storeName": "1670 OAKBROOK DRIVE",
    "address": "UNIT 370",
    "city": "NORCROSS",
    "zipcode": 30093,
    "state": "GA"
  },
  {
    "licenseeNumber": 15126,
    "businessName": "LUCKY FORTUNE LLC",
    "locationName": "",
    "storeName": "5675 JIMMY CATER BLVD",
    "address": "SUITE 127",
    "city": "NORCROSS",
    "zipcode": 30071,
    "state": "GA"
  },
  {
    "licenseeNumber": 15127,
    "businessName": "G AND M AMUSEMENT,INC",
    "locationName": "",
    "storeName": "127 CRAFTSMAN WAY",
    "address": "",
    "city": "MILNER",
    "zipcode": 30257,
    "state": "GA"
  },
  {
    "licenseeNumber": 15128,
    "businessName": "CHRISTOPHER P APPEL",
    "locationName": "XSCAPE GAMES",
    "storeName": "714 HERBERT SEGARS RD.",
    "address": "",
    "city": "GILLSVILLE",
    "zipcode": 30543,
    "state": "GA"
  },
  {
    "licenseeNumber": 15129,
    "businessName": "TOP DOLLAR AMUSEMENT LLC",
    "locationName": "TOP DOLLAR AMUSEMENT",
    "storeName": "2615 MOUNTAIN INDUSTRIAL BLVD, STE 10",
    "address": "",
    "city": "TUCKER",
    "zipcode": 30084,
    "state": "GA"
  },
  {
    "licenseeNumber": 15135,
    "businessName": "H MAYER INC",
    "locationName": "JUNIPER AMUSEMENT",
    "storeName": "4504 ARMOUR RD",
    "address": "STE 7",
    "city": "COLUMBUS",
    "zipcode": 31904,
    "state": "GA"
  },
  {
    "licenseeNumber": 15137,
    "businessName": "UNITED GAMING LLC",
    "locationName": "",
    "storeName": "18 BELLAMY CT",
    "address": "",
    "city": "STOCKBRIDGE",
    "zipcode": 30281,
    "state": "GA"
  },
  {
    "licenseeNumber": 15139,
    "businessName": "UR CHOICE INC",
    "locationName": "UR CHOICE PROMOTIONS",
    "storeName": "2650 PLEASANTDALE RD STE 5",
    "address": "",
    "city": "DORAVILLE",
    "zipcode": 30340,
    "state": "GA"
  },
  {
    "licenseeNumber": 15140,
    "businessName": "RIVERSIDE GAMING LLC",
    "locationName": "",
    "storeName": "6152-1 GREEN ISLAND DRIVE",
    "address": "",
    "city": "COLUMBUS",
    "zipcode": 31904,
    "state": "GA"
  },
  {
    "licenseeNumber": 15144,
    "businessName": "MEDLIN & ASSOCIATES LLC",
    "locationName": "",
    "storeName": "4375 COMMERCE DR.",
    "address": "",
    "city": "ATLANTA",
    "zipcode": 30336,
    "state": "GA"
  },
  {
    "licenseeNumber": 15147,
    "businessName": "WE AMUSEMENT",
    "locationName": "WE AMUSEMENT",
    "storeName": "916 LAFAYETTE RD",
    "address": "STE B",
    "city": "ROSSVILLE",
    "zipcode": 30741,
    "state": "GA"
  },
  {
    "licenseeNumber": 15148,
    "businessName": "EVERGREEN AMUSEMENT LLC",
    "locationName": "",
    "storeName": "5500 OAKBROOK PKWY STE 150",
    "address": "",
    "city": "NORCROSS",
    "zipcode": 30093,
    "state": "GA"
  },
  {
    "licenseeNumber": 15149,
    "businessName": "VENABLE MUSIC COMPANY INC",
    "locationName": "",
    "storeName": "11779 BIG CANOE, 22 CRESTED FERN LN",
    "address": "",
    "city": "BIG CANOE",
    "zipcode": 30143,
    "state": "GA"
  },
  {
    "licenseeNumber": 15150,
    "businessName": "AMUSEMENT SALES AND SERVICES INC",
    "locationName": "",
    "storeName": "5500 WHITE BLUFF ROAD",
    "address": "",
    "city": "SAVANNAH",
    "zipcode": 31405,
    "state": "GA"
  },
  {
    "licenseeNumber": 15151,
    "businessName": "UNITY FUN, LLC",
    "locationName": "",
    "storeName": "405 COBBLESTONE WAY",
    "address": "",
    "city": "BRUNSWICK",
    "zipcode": 31520,
    "state": "GA"
  },
  {
    "licenseeNumber": 15153,
    "businessName": "BHAVNA PATEL",
    "locationName": "",
    "storeName": "265 EAST AGENCY STREET",
    "address": "",
    "city": "ROBERTA",
    "zipcode": 31078,
    "state": "GA"
  },
  {
    "licenseeNumber": 15154,
    "businessName": "ISLAND GAMES, INC.",
    "locationName": "ISLAND GAMES, INC.",
    "storeName": "1006 ASHLEY RD",
    "address": "",
    "city": "SAVANNAH",
    "zipcode": 31410,
    "state": "GA"
  },
  {
    "licenseeNumber": 15155,
    "businessName": "NAT AMUSEMENT INC",
    "locationName": "",
    "storeName": "4546 JIMMY CARTER BLVD",
    "address": "SUITE 101",
    "city": "NORCROSS",
    "zipcode": 30093,
    "state": "GA"
  },
  {
    "licenseeNumber": 15156,
    "businessName": "ROSHALI INC",
    "locationName": "THE AMUSEMENT COMPANY",
    "storeName": "140 FELTON DR",
    "address": "",
    "city": "ROCKMART",
    "zipcode": 30153,
    "state": "GA"
  },
  {
    "licenseeNumber": 15158,
    "businessName": "JEONJANORI LLC",
    "locationName": "US EXPRESS AMUSEMENTS",
    "storeName": "4181 NEELY MEADOWS CT",
    "address": "",
    "city": "NORCROSS",
    "zipcode": 30092,
    "state": "GA"
  },
  {
    "licenseeNumber": 15159,
    "businessName": "Z-TECH AMUSEMENTS, LLC",
    "locationName": "",
    "storeName": "5425 PEACHTREE PARKWAY",
    "address": "",
    "city": "PEACHTREE CORNERS",
    "zipcode": 30092,
    "state": "GA"
  },
  {
    "licenseeNumber": 15160,
    "businessName": "FRED ALEXANDER AMUSEMENT CO",
    "locationName": "ALEXANDER AMUSEMENT INC",
    "storeName": "8 INDUSTRIAL BLVD",
    "address": "",
    "city": "TOCCOA",
    "zipcode": 30577,
    "state": "GA"
  },
  {
    "licenseeNumber": 15161,
    "businessName": "MIDTOWN VENDING, LLC",
    "locationName": "",
    "storeName": "780 VETERANS MEMORIAL HWY SW",
    "address": "SUITE 100",
    "city": "MABLETON",
    "zipcode": 30126,
    "state": "GA"
  },
  {
    "licenseeNumber": 15162,
    "businessName": "JIYA GAME AMUSEMENT LLC",
    "locationName": "JIYA GAME AMUSEMENT LLC",
    "storeName": "1009 LEGACY HILLS DR",
    "address": "",
    "city": "MCDONOUGH",
    "zipcode": 30253,
    "state": "GA"
  },
  {
    "licenseeNumber": 15163,
    "businessName": "SUMMIT AMUSEMENT LLC",
    "locationName": "",
    "storeName": "7613 FORTSON RD",
    "address": "SUITE 100-C",
    "city": "COLUMBUS",
    "zipcode": 31904,
    "state": "GA"
  },
  {
    "licenseeNumber": 15164,
    "businessName": "LUCKY BUCKS LLC",
    "locationName": "",
    "storeName": "5675 JIMMY CARTER BLVD",
    "address": "SUITE 725",
    "city": "NORCROSS",
    "zipcode": 30071,
    "state": "GA"
  },
  {
    "licenseeNumber": 15168,
    "businessName": "NUMBER ONE VENDING SERVICE INC",
    "locationName": "",
    "storeName": "2900 ASPINWALL STREET",
    "address": "",
    "city": "OFFERMAN",
    "zipcode": 31556,
    "state": "GA"
  },
  {
    "licenseeNumber": 15171,
    "businessName": "PEACHTREE ENTERTAINMENT COMPANY LL",
    "locationName": "",
    "storeName": "100 HARTSFIELD CENTRE PKWY",
    "address": "SUITE 500",
    "city": "ATLANTA",
    "zipcode": 30354,
    "state": "GA"
  },
  {
    "licenseeNumber": 15172,
    "businessName": "BREWER AMUSEMENT COMPANY, LLC",
    "locationName": "",
    "storeName": "935 GA HWY 124, UNIT 205",
    "address": "",
    "city": "BRASELTON",
    "zipcode": 30517,
    "state": "GA"
  },
  {
    "licenseeNumber": 15179,
    "businessName": "J M BROWN AMUSEMENT CO INC",
    "locationName": "",
    "storeName": "2000 RIVEREDGE PARKWAY STE 885",
    "address": "",
    "city": "ATLANTA",
    "zipcode": 30328,
    "state": "GA"
  },
  {
    "licenseeNumber": 15184,
    "businessName": "CHONG HEE KIM",
    "locationName": "",
    "storeName": "3125 WYNCROFT CT",
    "address": "",
    "city": "NORCROSS",
    "zipcode": 30071,
    "state": "GA"
  },
  {
    "licenseeNumber": 15191,
    "businessName": "SOUTHEAST BILLIARDS & GAMES INC.",
    "locationName": "",
    "storeName": "417 WEST HILL AVE.",
    "address": "",
    "city": "VALDOSTA",
    "zipcode": 31601,
    "state": "GA"
  },
  {
    "licenseeNumber": 15192,
    "businessName": "ROCKET AMUSEMENTS LLC",
    "locationName": "ROCKET AMUSEMENTS",
    "storeName": "1591 BAYHILL DRIVE",
    "address": "",
    "city": "JOHNS CREEK",
    "zipcode": 30097,
    "state": "GA"
  },
  {
    "licenseeNumber": 15194,
    "businessName": "ATLANTA IMPERIUM COMPANY LL",
    "locationName": "",
    "storeName": "798 NATCHEZ VALLEY TRACE",
    "address": "",
    "city": "GRAYSON",
    "zipcode": 30017,
    "state": "GA"
  },
  {
    "licenseeNumber": 15195,
    "businessName": "PATEL & DUONG LLC",
    "locationName": "ULTIMATE AMUSEMENTS",
    "storeName": "6090 DAWSON BLVD SUITE H",
    "address": "",
    "city": "NORCROSS",
    "zipcode": 30093,
    "state": "GA"
  },
  {
    "licenseeNumber": 15199,
    "businessName": "LEE CAUDELL INC.",
    "locationName": "",
    "storeName": "2974 ASTERIA DR",
    "address": "",
    "city": "DULUTH",
    "zipcode": 30097,
    "state": "GA"
  },
  {
    "licenseeNumber": 15209,
    "businessName": "HY-TEK AMUSEMENT SERVICES INC.",
    "locationName": "",
    "storeName": "27 COURTHOUSE SQUARE",
    "address": "",
    "city": "DALLAS",
    "zipcode": 30132,
    "state": "GA"
  },
  {
    "licenseeNumber": 15220,
    "businessName": "ENCORE AMUSEMENT OF GA LLC",
    "locationName": "",
    "storeName": "1805 MEREDITH PARK DRIVE",
    "address": "",
    "city": "MCDONOUGH",
    "zipcode": 30253,
    "state": "GA"
  },
  {
    "licenseeNumber": 15225,
    "businessName": "TOM'S AMUSEMENT CO., INC.",
    "locationName": "",
    "storeName": "135 MCKINNEY ROAD",
    "address": "",
    "city": "BLUE RIDGE",
    "zipcode": 30513,
    "state": "GA"
  },
  {
    "licenseeNumber": 15226,
    "businessName": "FAREAST AMUSEMENT GAMES LLC",
    "locationName": "",
    "storeName": "1960 SUGAR LAKE CT",
    "address": "",
    "city": "LAWRENCEVILLE",
    "zipcode": 30043,
    "state": "GA"
  },
  {
    "licenseeNumber": 15229,
    "businessName": "SAIMAA INTERNATIONAL INC.",
    "locationName": "GEORGIA SKILLS AMUSEMENT",
    "storeName": "203 ANTRIM STREET",
    "address": "",
    "city": "PORT WENTWORTH",
    "zipcode": 31407,
    "state": "GA"
  },
  {
    "licenseeNumber": 15234,
    "businessName": "DISCOUNT STOP INC",
    "locationName": "DISCOUNT STOP",
    "storeName": "200 RALEY ROAD",
    "address": "",
    "city": "PORT WENTWORTH",
    "zipcode": 31407,
    "state": "GA"
  },
  {
    "licenseeNumber": 15239,
    "businessName": "ARMSTRONG AMUSEMENT, LLC",
    "locationName": "GAMES PLUS",
    "storeName": "4480 RIVERSIDE DR. STE. 22",
    "address": "",
    "city": "MACON",
    "zipcode": 31210,
    "state": "GA"
  },
  {
    "licenseeNumber": 15242,
    "businessName": "DEVYASHI INC",
    "locationName": "FORTUNE GAMES",
    "storeName": "2179 LAWRENCEVILLE HWY STE 105",
    "address": "",
    "city": "LAWRENCEVILLE",
    "zipcode": 30044,
    "state": "GA"
  },
  {
    "licenseeNumber": 15245,
    "businessName": "ASHOK PATEL",
    "locationName": "",
    "storeName": "106 E KELLY ST",
    "address": "",
    "city": "SYLVESTER",
    "zipcode": 31791,
    "state": "GA"
  },
  {
    "licenseeNumber": 15247,
    "businessName": "EPIC AMUSEMENT LLC",
    "locationName": "EPIC AMUSEMENT",
    "storeName": "2260 JONESBORO ROAD",
    "address": "",
    "city": "MCDONOUGH",
    "zipcode": 30253,
    "state": "GA"
  },
  {
    "licenseeNumber": 15252,
    "businessName": "NUTEC USA INC",
    "locationName": "NUTEC VENDINGS",
    "storeName": "3301 BUCKEYE RD STE 209",
    "address": "",
    "city": "ATLANTA",
    "zipcode": 30341,
    "state": "GA"
  },
  {
    "licenseeNumber": 15253,
    "businessName": "CONTINENTAL GAMES INC",
    "locationName": "CONTINENTAL GAMES",
    "storeName": "6825 JIMMY CARTER BLVD",
    "address": "SUITE 1740",
    "city": "NORCROSS",
    "zipcode": 30071,
    "state": "GA"
  },
  {
    "licenseeNumber": 15256,
    "businessName": "SHIVBHAKTI INC",
    "locationName": "GAME VENDOR",
    "storeName": "5500 OAKBROOK PKWY STE 170",
    "address": "",
    "city": "NORCROSS",
    "zipcode": 30093,
    "state": "GA"
  },
  {
    "licenseeNumber": 15257,
    "businessName": "ESTEEM TRANSPORT COMPANY",
    "locationName": "AEQUITAS TACTICAL",
    "storeName": "3151 WILLOW GREEN CT",
    "address": "",
    "city": "DULUTH",
    "zipcode": 30096,
    "state": "GA"
  },
  {
    "licenseeNumber": 15260,
    "businessName": "KALI AMUSEMENT LLC",
    "locationName": "",
    "storeName": "108 EAGLE CREST DRIVE",
    "address": "",
    "city": "BRUNSWICK",
    "zipcode": 31525,
    "state": "GA"
  },
  {
    "licenseeNumber": 15261,
    "businessName": "DOUBLE BAY ARCADE INC.",
    "locationName": "TOP SHELF GAMES",
    "storeName": "6040 UNITY DR STE K",
    "address": "",
    "city": "NORCROSS",
    "zipcode": 30071,
    "state": "GA"
  },
  {
    "licenseeNumber": 15264,
    "businessName": "QUANTUM EXCEL ENTERPRISES, INC",
    "locationName": "QUANTUM EXCEL",
    "storeName": "2159 BROWNS BRIDGE RD",
    "address": "SUITE C",
    "city": "GAINESVILLE",
    "zipcode": 30501,
    "state": "GA"
  },
  {
    "licenseeNumber": 15270,
    "businessName": "QUALITY CANDY SERVICE INC",
    "locationName": "",
    "storeName": "515 E MCINTOSH RD",
    "address": "",
    "city": "GRIFFIN",
    "zipcode": 30223,
    "state": "GA"
  },
  {
    "licenseeNumber": 15272,
    "businessName": "ELITE AMUSEMENT, INC.",
    "locationName": "",
    "storeName": "1530 ROCKBRIDGE RD NW STE A",
    "address": "",
    "city": "CONYERS",
    "zipcode": 30012,
    "state": "GA"
  },
  {
    "licenseeNumber": 15279,
    "businessName": "ROBERT BELL",
    "locationName": "24/7 AMUSEMENT",
    "storeName": "2476 VINEVILLE AVE",
    "address": "",
    "city": "MACON",
    "zipcode": 31204,
    "state": "GA"
  },
  {
    "licenseeNumber": 15280,
    "businessName": "GARVIN AMUSEMENT & SERVICE LLC",
    "locationName": "",
    "storeName": "1450 DEAN FOREST RD",
    "address": "UNIT B",
    "city": "GARDEN CITY",
    "zipcode": 31405,
    "state": "GA"
  },
  {
    "licenseeNumber": 15281,
    "businessName": "MIMS ENTERTAINMENT LLC",
    "locationName": "",
    "storeName": "3816 COMMERCIAL COURT",
    "address": "",
    "city": "MARTINEZ",
    "zipcode": 30907,
    "state": "GA"
  },
  {
    "licenseeNumber": 15284,
    "businessName": "EAST COAST ENTERTAINMENT SERVICES, INC.",
    "locationName": "",
    "storeName": "2805 GUMLOG ROAD",
    "address": "",
    "city": "LAVONIA",
    "zipcode": 30553,
    "state": "GA"
  },
  {
    "licenseeNumber": 15285,
    "businessName": "A & R ENTERTAINMENT INC",
    "locationName": "",
    "storeName": "3210 SUGARLOAF CLUB DRIVE",
    "address": "",
    "city": "DULUTH",
    "zipcode": 30097,
    "state": "GA"
  },
  {
    "licenseeNumber": 15286,
    "businessName": "SHIVSENA GAMING LLC",
    "locationName": "",
    "storeName": "3151 TOWER RD",
    "address": "SUITE A",
    "city": "COLUMBUS",
    "zipcode": 31906,
    "state": "GA"
  },
  {
    "licenseeNumber": 15291,
    "businessName": "DIAMOND AMUSEMENTS INC",
    "locationName": "",
    "storeName": "2341 HWY 78",
    "address": "BOX 13",
    "city": "LOGANVILLE",
    "zipcode": 30052,
    "state": "GA"
  },
  {
    "licenseeNumber": 15294,
    "businessName": "ALLTIME AMUSEMENT INC",
    "locationName": "ALLTIME AMUSEMENT",
    "storeName": "2993 SANDY PLAINS RD STE 115",
    "address": "",
    "city": "MARIETTA",
    "zipcode": 30066,
    "state": "GA"
  },
  {
    "licenseeNumber": 15298,
    "businessName": "SINGH ENTERTAINMENTS INC",
    "locationName": "SINGH ENTERTAINMENTS",
    "storeName": "1399 MONTREAL RD",
    "address": "SUITE 201",
    "city": "TUCKER",
    "zipcode": 30084,
    "state": "GA"
  },
  {
    "licenseeNumber": 15301,
    "businessName": "DUCES ENTERTAINMENT LLC",
    "locationName": "ORANGE AMUSEMENTS",
    "storeName": "6416 PEAKE RD",
    "address": "SUITE 15",
    "city": "MACON",
    "zipcode": 31210,
    "state": "GA"
  },
  {
    "licenseeNumber": 15303,
    "businessName": "A-1 AMUSEMENT LLC",
    "locationName": "",
    "storeName": "3859 POSTAL DRIVE",
    "address": "SUITE 200",
    "city": "DULUTH",
    "zipcode": 30096,
    "state": "GA"
  },
  {
    "licenseeNumber": 15304,
    "businessName": "LAVES AMUSEMENT INC.",
    "locationName": "",
    "storeName": "2645 N BERKELEY LAKE RD NW STE 132",
    "address": "",
    "city": "DULUTH",
    "zipcode": 30096,
    "state": "GA"
  },
  {
    "licenseeNumber": 15306,
    "businessName": "MSII INC",
    "locationName": "",
    "storeName": "1072 PARK HOLLOW LANE",
    "address": "",
    "city": "LAWRENCEVILLE",
    "zipcode": 30043,
    "state": "GA"
  },
  {
    "licenseeNumber": 15307,
    "businessName": "RSM MANAGEMENT LLC",
    "locationName": "SILVER STAR AMUSEMENT",
    "storeName": "4190 PLEASANTDALE RD",
    "address": "SUITE B-100",
    "city": "DORAVILLE",
    "zipcode": 30340,
    "state": "GA"
  },
  {
    "licenseeNumber": 15308,
    "businessName": "PBI AMUSEMENTS LLC",
    "locationName": "",
    "storeName": "3438 US HIGHWAY 411 NE SUITE # B",
    "address": "",
    "city": "RANGER",
    "zipcode": 30734,
    "state": "GA"
  },
  {
    "licenseeNumber": 15310,
    "businessName": "ILLUMINOUS, LLC",
    "locationName": "",
    "storeName": "2260 JONESBORO RD",
    "address": "",
    "city": "MCDONOUGH",
    "zipcode": 30253,
    "state": "GA"
  },
  {
    "licenseeNumber": 15311,
    "businessName": "LOKESH PATEL",
    "locationName": "SHOP N GO",
    "storeName": "216 FELT DR",
    "address": "",
    "city": "SAVANNAH",
    "zipcode": 31419,
    "state": "GA"
  },
  {
    "licenseeNumber": 15312,
    "businessName": "OLD BABAS COMPANY",
    "locationName": "",
    "storeName": "8010 ENGLISH ROSE WAY",
    "address": "",
    "city": "ROSWELL",
    "zipcode": 30076,
    "state": "GA"
  },
  {
    "licenseeNumber": 15313,
    "businessName": "ATLANTA GAME WORLD LLC",
    "locationName": "",
    "storeName": "5980 UNITY DR SUITE G",
    "address": "",
    "city": "NORCROSS",
    "zipcode": 30071,
    "state": "GA"
  },
  {
    "licenseeNumber": 15314,
    "businessName": "PREMIER VENDING GROUP, LLC",
    "locationName": "",
    "storeName": "5825 LIVE OAK PARKWAY",
    "address": "SUITE 2C",
    "city": "NORCROSS",
    "zipcode": 30093,
    "state": "GA"
  },
  {
    "licenseeNumber": 15316,
    "businessName": "CLASSIC AMUSEMENT GROUP 777 LLC",
    "locationName": "CLASSIC AMUSEMENT",
    "storeName": "6030 DAWSON BLVD",
    "address": "UNIT B",
    "city": "NORCROSS",
    "zipcode": 30093,
    "state": "GA"
  },
  {
    "licenseeNumber": 15318,
    "businessName": "MIDDLE GEORGIA AMUSEMENT GAMES INC",
    "locationName": "",
    "storeName": "1516 KALAMAZOO DR STE B1",
    "address": "",
    "city": "GRIFFIN",
    "zipcode": 30223,
    "state": "GA"
  },
  {
    "licenseeNumber": 15320,
    "businessName": "SKY BOX PARTNERS LLC",
    "locationName": "",
    "storeName": "2260 JONESBORO RD",
    "address": "",
    "city": "MCDONOUGH",
    "zipcode": 30253,
    "state": "GA"
  },
  {
    "licenseeNumber": 15321,
    "businessName": "BEST TIMES LLC",
    "locationName": "",
    "storeName": "413 SHUFORD ST",
    "address": "",
    "city": "LAVONIA",
    "zipcode": 30553,
    "state": "GA"
  },
  {
    "licenseeNumber": 15322,
    "businessName": "DOUBLE DOWN GAMING 2 LLC",
    "locationName": "SENECA TECHNOLOGIES",
    "storeName": "1640 POWERS FERRY RD",
    "address": "BLDG 2-125",
    "city": "MARIETTA",
    "zipcode": 30067,
    "state": "GA"
  },
  {
    "licenseeNumber": 15324,
    "businessName": "N & J ENTERTAINMENT LLC",
    "locationName": "",
    "storeName": "4262 NORWICH ST EXT",
    "address": "",
    "city": "BRUNSWICK",
    "zipcode": 31520,
    "state": "GA"
  },
  {
    "licenseeNumber": 15326,
    "businessName": "LUCKY BUCKS LLC",
    "locationName": "",
    "storeName": "5675 JIMMY CARTER BLVD.",
    "address": "SUITE 725",
    "city": "NORCROSS",
    "zipcode": 30071,
    "state": "GA"
  },
  {
    "licenseeNumber": 15327,
    "businessName": "JACKIE HARRELL",
    "locationName": "JKH AMUSEMENTS",
    "storeName": "4016 FLOWERS RD SUITE 470",
    "address": "",
    "city": "ATLANTA",
    "zipcode": 30360,
    "state": "GA"
  },
  {
    "licenseeNumber": 15328,
    "businessName": "LUCKY BUCKS LLC",
    "locationName": "",
    "storeName": "5675 JIMMY CARTER BLVD",
    "address": "STE 725",
    "city": "NORCROSS",
    "zipcode": 30071,
    "state": "GA"
  },
  {
    "licenseeNumber": 16001,
    "businessName": "ATLANTIC GAMES INC",
    "locationName": "",
    "storeName": "3905 LAVISTA ROAD",
    "address": "STE A",
    "city": "TUCKER",
    "zipcode": 30084,
    "state": "GA"
  },
  {
    "licenseeNumber": 16002,
    "businessName": "EVEREST AMUSEMENT LLC",
    "locationName": "",
    "storeName": "6050 DAWSON BLVD",
    "address": "UNIT G",
    "city": "NORCROSS",
    "zipcode": 30093,
    "state": "GA"
  },
  {
    "licenseeNumber": 16005,
    "businessName": "ALLENSON LLC",
    "locationName": "",
    "storeName": "6000 LIVE OAK PKWY",
    "address": "SUITE 110",
    "city": "NORCROSS",
    "zipcode": 30062,
    "state": "GA"
  },
  {
    "licenseeNumber": 16006,
    "businessName": "VGL, INC.",
    "locationName": "",
    "storeName": "4842 LAVISTA RD",
    "address": "",
    "city": "TUCKER",
    "zipcode": 30084,
    "state": "GA"
  },
  {
    "licenseeNumber": 16007,
    "businessName": "LOUIS A HERNANDEZ",
    "locationName": "LIBERTY VENDING CO.",
    "storeName": "6041 B OGEECHEE ROAD",
    "address": "",
    "city": "SAVANNAH",
    "zipcode": 31419,
    "state": "GA"
  },
  {
    "licenseeNumber": 16008,
    "businessName": "KGS HOLDINGS, LLC",
    "locationName": "MILLENNIUM AMUSEMENT",
    "storeName": "3144 GOLF RIDGE BLVD",
    "address": "SUITE 102",
    "city": "DOUGLASVILLE",
    "zipcode": 30135,
    "state": "GA"
  },
  {
    "licenseeNumber": 16009,
    "businessName": "SHREE BECHRAJI, INC.",
    "locationName": "",
    "storeName": "1711 DEAN FOREST RD",
    "address": "STE. K",
    "city": "SAVANNAH",
    "zipcode": 31408,
    "state": "GA"
  },
  {
    "licenseeNumber": 16010,
    "businessName": "SPINNER AMUSEMENT LLC",
    "locationName": "SPINNER AMUSEMENT",
    "storeName": "5790 STOW DRIVE",
    "address": "",
    "city": "TUCKER",
    "zipcode": 30084,
    "state": "GA"
  },
  {
    "licenseeNumber": 16011,
    "businessName": "VINTAGE AMUSEMENT, LLC",
    "locationName": "",
    "storeName": "1895 BEAVER RIDGE CIRCLE",
    "address": "STE F",
    "city": "NORCORSS",
    "zipcode": 30071,
    "state": "GA"
  },
  {
    "licenseeNumber": 16013,
    "businessName": "GAMING CENTRAL LLC",
    "locationName": "",
    "storeName": "15 PERRY ST",
    "address": "STE 111",
    "city": "NEWNAN",
    "zipcode": 30263,
    "state": "GA"
  },
  {
    "licenseeNumber": 16015,
    "businessName": "I AM AMUSED, LLC",
    "locationName": "",
    "storeName": "955 FLAT ROCK ROAD STE C",
    "address": "",
    "city": "STOCKBRIGE",
    "zipcode": 30281,
    "state": "GA"
  },
  {
    "licenseeNumber": 16017,
    "businessName": "GOLDSTAR AMUSEMENT LLC",
    "locationName": "",
    "storeName": "6050 DAWSON BLVD",
    "address": "SUITE Q",
    "city": "NORCROSS",
    "zipcode": 30093,
    "state": "GA"
  },
  {
    "licenseeNumber": 16018,
    "businessName": "VARIETY AMUSEMENT SERVICES LLC",
    "locationName": "",
    "storeName": "3816 COMMERCIAL COURT",
    "address": "",
    "city": "MARTINEZ",
    "zipcode": 30907,
    "state": "GA"
  },
  {
    "licenseeNumber": 16019,
    "businessName": "SAPPHIRE AMUSEMENT LLC",
    "locationName": "SAPPHIRE AMUSEMENT",
    "storeName": "2260 JONESBORO RD",
    "address": "",
    "city": "MCDONOUGH",
    "zipcode": 30253,
    "state": "GA"
  },
  {
    "licenseeNumber": 16020,
    "businessName": "TOP AMUSEMENT LLC",
    "locationName": "TOP AMUSEMENT",
    "storeName": "2 PLATINUM COURT",
    "address": "",
    "city": "POOLER",
    "zipcode": 31322,
    "state": "GA"
  },
  {
    "licenseeNumber": 16021,
    "businessName": "EMERALD AMUSEMENT LLC",
    "locationName": "",
    "storeName": "1450 DEAN FOREST RD",
    "address": "UNIT B",
    "city": "GARDEN CITY",
    "zipcode": 31405,
    "state": "GA"
  },
  {
    "licenseeNumber": 16023,
    "businessName": "ACE BUSINESS CENTERS, LLC",
    "locationName": "PLANET AMUSEMENTS",
    "storeName": "500 G STREET",
    "address": "",
    "city": "BRUNSWICK",
    "zipcode": 31520,
    "state": "GA"
  },
  {
    "licenseeNumber": 16024,
    "businessName": "GEORGIA VIDEO GAMES LLC",
    "locationName": "GEORGIA VIDEO GAMES",
    "storeName": "4025 NORTHLAKE DRIVE",
    "address": "",
    "city": "VALDOSTA",
    "zipcode": 31602,
    "state": "GA"
  },
  {
    "licenseeNumber": 16025,
    "businessName": "ADK LLC",
    "locationName": "",
    "storeName": "481 EMERALD TRACE",
    "address": "",
    "city": "JONESBORO",
    "zipcode": 30236,
    "state": "GA"
  },
  {
    "licenseeNumber": 16027,
    "businessName": "PLATINUM GAMING LLC",
    "locationName": "",
    "storeName": "409 PAYTON CT",
    "address": "",
    "city": "STOCKBRIDGE",
    "zipcode": 30281,
    "state": "GA"
  },
  {
    "licenseeNumber": 16028,
    "businessName": "RIVER CITY ENTERTAINMENT LLC",
    "locationName": "",
    "storeName": "5977 WHITESVILLE RD",
    "address": "SUITE #9",
    "city": "COLUMBUS",
    "zipcode": 31904,
    "state": "GA"
  },
  {
    "licenseeNumber": 16031,
    "businessName": "GLOBAL ARCADE, LLC.",
    "locationName": "VENDING KIOSK",
    "storeName": "3010 SANDY PARKWAY",
    "address": "",
    "city": "COLUMBUS",
    "zipcode": 31909,
    "state": "GA"
  },
  {
    "licenseeNumber": 16032,
    "businessName": "DIXIE AMUSEMENT, LLC",
    "locationName": "",
    "storeName": "1516 KALAMAZOO DRIVE",
    "address": "SUITE A3",
    "city": "GRIFFIN",
    "zipcode": 30224,
    "state": "GA"
  },
  {
    "licenseeNumber": 16033,
    "businessName": "FUNTIME AMUSEMENT GROUP INC",
    "locationName": "FUNTIME AMUSEMENT",
    "storeName": "6000 LIVE OAK PARKWAY #107A",
    "address": "",
    "city": "NORCROSS",
    "zipcode": 30093,
    "state": "GA"
  },
  {
    "licenseeNumber": 16034,
    "businessName": "INTERSTATE GAMES LLC",
    "locationName": "",
    "storeName": "6090 DAWSON BLVD STE H",
    "address": "",
    "city": "NORCROSS",
    "zipcode": 30093,
    "state": "GA"
  },
  {
    "licenseeNumber": 16037,
    "businessName": "RSS HOLDINGS II, INC",
    "locationName": "SOUTHERN AMUSEMENT GROUP",
    "storeName": "1351 OAKBROOK DRIVE, STE 158",
    "address": "",
    "city": "NORCROSS",
    "zipcode": 30093,
    "state": "GA"
  },
  {
    "licenseeNumber": 16038,
    "businessName": "AGM VENTURES, LLC",
    "locationName": "PEACHTREE AMUSEMENT",
    "storeName": "6060 DAWSON BLVD., SUITE N",
    "address": "",
    "city": "NORCROSS",
    "zipcode": 30093,
    "state": "GA"
  },
  {
    "licenseeNumber": 16040,
    "businessName": "LIGHTENING GAMES LLC",
    "locationName": "",
    "storeName": "190 EMERALD DRIVE",
    "address": "",
    "city": "ATHENS",
    "zipcode": 30605,
    "state": "GA"
  },
  {
    "licenseeNumber": 16041,
    "businessName": "VICTORY AMUSEMENT SYSTEMS, INC",
    "locationName": "N/A",
    "storeName": "1425 OAKBROOK DRIVE",
    "address": "SUITE 400",
    "city": "NORCROSS",
    "zipcode": 30093,
    "state": "GA"
  },
  {
    "licenseeNumber": 17000,
    "businessName": "RIA GAMES, LLC",
    "locationName": "RIA GAMES",
    "storeName": "2 GATEWAY BLVD E STE 201",
    "address": "",
    "city": "SAVANNAH",
    "zipcode": 31419,
    "state": "GA"
  },
  {
    "licenseeNumber": 17001,
    "businessName": "LEGACY AMUSEMENT INC",
    "locationName": "",
    "storeName": "2292 LAVISTA CV",
    "address": "",
    "city": "TUCKER",
    "zipcode": 30084,
    "state": "GA"
  },
  {
    "licenseeNumber": 17002,
    "businessName": "DGKL INC",
    "locationName": "DGKL INC",
    "storeName": "1027 BROADWAY",
    "address": "",
    "city": "COLUMBUS",
    "zipcode": 31901,
    "state": "GA"
  },
  {
    "licenseeNumber": 17003,
    "businessName": "FIVE STARS AMUSEMENTS INC",
    "locationName": "",
    "storeName": "3700 CLUB DR",
    "address": "",
    "city": "LAWRENCEVILLE",
    "zipcode": 30043,
    "state": "GA"
  }
]